ONEWEB-0231             
1 48782U 21045R   25340.54640205  .00000054  00000+0  11048-3 0  9996
2 48782  87.8981 297.6424 0002142  78.9546 281.1826 13.15548510219018
ONEWEB-0234             
1 48783U 21045S   25340.28005739  .00000111  00000+0  26203-3 0  9998
2 48783  87.8988 297.6689 0001185  56.7192 303.4051 13.15548355219112
ONEWEB-0238             
1 48784U 21045T   25340.58454811  .00000119  00000+0  28124-3 0  9993
2 48784  87.8984 297.6018 0001511  73.5797 286.5499 13.15550627219051
ONEWEB-0240             
1 48785U 21045U   25340.60581619 -.00000073  00000+0 -22825-3 0  9997
2 48785  87.8998 297.5916 0001985  69.6729 290.4614 13.15549704219089
ONEWEB-0246             
1 48786U 21045V   25340.60026774  .00000020  00000+0  18179-4 0  9992
2 48786  87.8992 297.6033 0001961  82.1253 278.0100 13.15550263218950
ONEWEB-0210             
1 48787U 21045W   25340.57491982  .00000184  00000+0  45580-3 0  9992
2 48787  87.8989 297.6075 0002468  82.5119 277.6292 13.15549113218994
ONEWEB-0214             
1 48788U 21045X   25340.58362228  .00000133  00000+0  32038-3 0  9992
2 48788  87.9002 297.5965 0002186  86.3321 273.8060 13.15547369218962
ONEWEB-0221             
1 48789U 21045Y   25340.28653438  .00000054  00000+0  10857-3 0  9993
2 48789  87.8990 297.6713 0002010  75.9395 284.1959 13.15548895219015
ONEWEB-0213             
1 48790U 21045Z   25340.35149665  .00000209  00000+0  51983-3 0  9992
2 48790  87.8982 297.6665 0002076  78.0432 282.0931 13.15550592219083
ONEWEB-0212             
1 48791U 21045AA  25340.63274317  .00000085  00000+0  19129-3 0  9995
2 48791  87.8993 297.6001 0001789  78.8896 281.2435 13.15550411219116
ONEWEB-0227             
1 48792U 21045AB  25340.63196367  .00000130  00000+0  31046-3 0  9997
2 48792  87.8982 297.6111 0001899  77.5336 282.6007 13.15548479219069
ONEWEB-0226             
1 48793U 21045AC  25340.62562456  .00000110  00000+0  25914-3 0  9998
2 48793  87.8983 297.6213 0002196  81.8489 278.2891 13.15548888219035
ONEWEB-0224             
1 48794U 21045AD  25340.58917923  .00000024  00000+0  30336-4 0  9996
2 48794  87.8984 297.6635 0001938  50.6695 309.4607 13.15549418218953
ONEWEB-0233             
1 48795U 21045AE  25340.59378903 -.00000004  00000+0 -45798-4 0  9995
2 48795  87.8985 297.6733 0002038  72.8716 287.2638 13.15549640218972
ONEWEB-0190             
1 48796U 21045AF  25340.12491622 -.00000043  00000+0 -14934-3 0  9999
2 48796  87.8980 297.7287 0002539  73.6611 286.4799 13.15547594218988
ONEWEB-0236             
1 48797U 21045AG  25340.29445346 -.00000054  00000+0 -17622-3 0  9999
2 48797  87.8980 297.7070 0001681  81.6724 278.4596 13.15549103218894
