[{"OBJECT_NAME":"ONEWEB-0231","OBJECT_ID":"2021-045R","EPOCH":"2025-12-06T13:06:49.137120","MEAN_MOTION":13.1554851,"ECCENTRICITY":0.00021428,"INCLINATION":87.8981,"RA_OF_ASC_NODE":297.6424,"ARG_OF_PERICENTER":78.9546,"MEAN_ANOMALY":281.1826,"EPHEMERIS_TYPE":0,"CLASSIFICATION_TYPE":"U","NORAD_CAT_ID":48782,"ELEMENT_SET_NO":999,"REV_AT_EPOCH":21901,"BSTAR":0.000110482,"MEAN_MOTION_DOT":5.4e-7,"MEAN_MOTION_DDOT":0},{"OBJECT_NAME":"ONEWEB-0234","OBJECT_ID":"2021-045S","EPOCH":"2025-12-06T06:43:16.958496","MEAN_MOTION":13.15548355,"ECCENTRICITY":0.0001185,"INCLINATION":87.8988,"RA_OF_ASC_NODE":297.6689,"ARG_OF_PERICENTER":56.7192,"MEAN_ANOMALY":303.4051,"EPHEMERIS_TYPE":0,"CLASSIFICATION_TYPE":"U","NORAD_CAT_ID":48783,"ELEMENT_SET_NO":999,"REV_AT_EPOCH":21911,"BSTAR":0.00026203382,"MEAN_MOTION_DOT":1.11e-6,"MEAN_MOTION_DDOT":0},{"OBJECT_NAME":"ONEWEB-0238","OBJECT_ID":"2021-045T","EPOCH":"2025-12-06T14:01:44.956704","MEAN_MOTION":13.15550627,"ECCENTRICITY":0.00015111,"INCLINATION":87.8984,"RA_OF_ASC_NODE":297.6018,"ARG_OF_PERICENTER":73.5797,"MEAN_ANOMALY":286.5499,"EPHEMERIS_TYPE":0,"CLASSIFICATION_TYPE":"U","NORAD_CAT_ID":48784,"ELEMENT_SET_NO":999,"REV_AT_EPOCH":21905,"BSTAR":0.00028123852,"MEAN_MOTION_DOT":1.19e-6,"MEAN_MOTION_DDOT":0},{"OBJECT_NAME":"ONEWEB-0240","OBJECT_ID":"2021-045U","EPOCH":"2025-12-06T14:32:22.518816","MEAN_MOTION":13.15549704,"ECCENTRICITY":0.00019854,"INCLINATION":87.8998,"RA_OF_ASC_NODE":297.5916,"ARG_OF_PERICENTER":69.6729,"MEAN_ANOMALY":290.4614,"EPHEMERIS_TYPE":0,"CLASSIFICATION_TYPE":"U","NORAD_CAT_ID":48785,"ELEMENT_SET_NO":999,"REV_AT_EPOCH":21908,"BSTAR":-0.00022825211,"MEAN_MOTION_DOT":-7.3e-7,"MEAN_MOTION_DDOT":0},{"OBJECT_NAME":"ONEWEB-0246","OBJECT_ID":"2021-045V","EPOCH":"2025-12-06T14:24:23.132736","MEAN_MOTION":13.15550263,"ECCENTRICITY":0.00019617,"INCLINATION":87.8992,"RA_OF_ASC_NODE":297.6033,"ARG_OF_PERICENTER":82.1253,"MEAN_ANOMALY":278.01,"EPHEMERIS_TYPE":0,"CLASSIFICATION_TYPE":"U","NORAD_CAT_ID":48786,"ELEMENT_SET_NO":999,"REV_AT_EPOCH":21895,"BSTAR":1.8179151e-5,"MEAN_MOTION_DOT":2.0e-7,"MEAN_MOTION_DDOT":0},{"OBJECT_NAME":"ONEWEB-0210","OBJECT_ID":"2021-045W","EPOCH":"2025-12-06T13:47:53.072448","MEAN_MOTION":13.15549113,"ECCENTRICITY":0.00024685,"INCLINATION":87.8989,"RA_OF_ASC_NODE":297.6075,"ARG_OF_PERICENTER":82.5119,"MEAN_ANOMALY":277.6292,"EPHEMERIS_TYPE":0,"CLASSIFICATION_TYPE":"U","NORAD_CAT_ID":48787,"ELEMENT_SET_NO":999,"REV_AT_EPOCH":21899,"BSTAR":0.00045579851,"MEAN_MOTION_DOT":1.84e-6,"MEAN_MOTION_DDOT":0},{"OBJECT_NAME":"ONEWEB-0214","OBJECT_ID":"2021-045X","EPOCH":"2025-12-06T14:00:24.964992","MEAN_MOTION":13.15547369,"ECCENTRICITY":0.00021866,"INCLINATION":87.9002,"RA_OF_ASC_NODE":297.5965,"ARG_OF_PERICENTER":86.3321,"MEAN_ANOMALY":273.806,"EPHEMERIS_TYPE":0,"CLASSIFICATION_TYPE":"U","NORAD_CAT_ID":48788,"ELEMENT_SET_NO":999,"REV_AT_EPOCH":21896,"BSTAR":0.00032038301,"MEAN_MOTION_DOT":1.33e-6,"MEAN_MOTION_DDOT":0},{"OBJECT_NAME":"ONEWEB-0221","OBJECT_ID":"2021-045Y","EPOCH":"2025-12-06T06:52:36.570432","MEAN_MOTION":13.15548895,"ECCENTRICITY":0.00020101,"INCLINATION":87.899,"RA_OF_ASC_NODE":297.6713,"ARG_OF_PERICENTER":75.9395,"MEAN_ANOMALY":284.1959,"EPHEMERIS_TYPE":0,"CLASSIFICATION_TYPE":"U","NORAD_CAT_ID":48789,"ELEMENT_SET_NO":999,"REV_AT_EPOCH":21901,"BSTAR":0.00010857306,"MEAN_MOTION_DOT":5.4e-7,"MEAN_MOTION_DDOT":0},{"OBJECT_NAME":"ONEWEB-0213","OBJECT_ID":"2021-045Z","EPOCH":"2025-12-06T08:26:09.310560","MEAN_MOTION":13.15550592,"ECCENTRICITY":0.00020761,"INCLINATION":87.8982,"RA_OF_ASC_NODE":297.6665,"ARG_OF_PERICENTER":78.0432,"MEAN_ANOMALY":282.0931,"EPHEMERIS_TYPE":0,"CLASSIFICATION_TYPE":"U","NORAD_CAT_ID":48790,"ELEMENT_SET_NO":999,"REV_AT_EPOCH":21908,"BSTAR":0.00051983056,"MEAN_MOTION_DOT":2.09e-6,"MEAN_MOTION_DDOT":0},{"OBJECT_NAME":"ONEWEB-0212","OBJECT_ID":"2021-045AA","EPOCH":"2025-12-06T15:11:09.009888","MEAN_MOTION":13.15550411,"ECCENTRICITY":0.00017891,"INCLINATION":87.8993,"RA_OF_ASC_NODE":297.6001,"ARG_OF_PERICENTER":78.8896,"MEAN_ANOMALY":281.2435,"EPHEMERIS_TYPE":0,"CLASSIFICATION_TYPE":"U","NORAD_CAT_ID":48791,"ELEMENT_SET_NO":999,"REV_AT_EPOCH":21911,"BSTAR":0.00019129162,"MEAN_MOTION_DOT":8.5e-7,"MEAN_MOTION_DDOT":0},{"OBJECT_NAME":"ONEWEB-0227","OBJECT_ID":"2021-045AB","EPOCH":"2025-12-06T15:10:01.661088","MEAN_MOTION":13.15548479,"ECCENTRICITY":0.00018997,"INCLINATION":87.8982,"RA_OF_ASC_NODE":297.6111,"ARG_OF_PERICENTER":77.5336,"MEAN_ANOMALY":282.6007,"EPHEMERIS_TYPE":0,"CLASSIFICATION_TYPE":"U","NORAD_CAT_ID":48792,"ELEMENT_SET_NO":999,"REV_AT_EPOCH":21906,"BSTAR":0.00031045659,"MEAN_MOTION_DOT":1.3e-6,"MEAN_MOTION_DDOT":0},{"OBJECT_NAME":"ONEWEB-0226","OBJECT_ID":"2021-045AC","EPOCH":"2025-12-06T15:00:53.961984","MEAN_MOTION":13.15548888,"ECCENTRICITY":0.00021962,"INCLINATION":87.8983,"RA_OF_ASC_NODE":297.6213,"ARG_OF_PERICENTER":81.8489,"MEAN_ANOMALY":278.2891,"EPHEMERIS_TYPE":0,"CLASSIFICATION_TYPE":"U","NORAD_CAT_ID":48793,"ELEMENT_SET_NO":999,"REV_AT_EPOCH":21903,"BSTAR":0.00025914305,"MEAN_MOTION_DOT":1.1e-6,"MEAN_MOTION_DDOT":0},{"OBJECT_NAME":"ONEWEB-0224","OBJECT_ID":"2021-045AD","EPOCH":"2025-12-06T14:08:25.085472","MEAN_MOTION":13.15549418,"ECCENTRICITY":0.00019382,"INCLINATION":87.8984,"RA_OF_ASC_NODE":297.6635,"ARG_OF_PERICENTER":50.6695,"MEAN_ANOMALY":309.4607,"EPHEMERIS_TYPE":0,"CLASSIFICATION_TYPE":"U","NORAD_CAT_ID":48794,"ELEMENT_SET_NO":999,"REV_AT_EPOCH":21895,"BSTAR":3.0335858e-5,"MEAN_MOTION_DOT":2.4e-7,"MEAN_MOTION_DDOT":0},{"OBJECT_NAME":"ONEWEB-0233","OBJECT_ID":"2021-045AE","EPOCH":"2025-12-06T14:15:03.372192","MEAN_MOTION":13.1554964,"ECCENTRICITY":0.00020385,"INCLINATION":87.8985,"RA_OF_ASC_NODE":297.6733,"ARG_OF_PERICENTER":72.8716,"MEAN_ANOMALY":287.2638,"EPHEMERIS_TYPE":0,"CLASSIFICATION_TYPE":"U","NORAD_CAT_ID":48795,"ELEMENT_SET_NO":999,"REV_AT_EPOCH":21897,"BSTAR":-4.5798305e-5,"MEAN_MOTION_DOT":-4.0e-8,"MEAN_MOTION_DDOT":0},{"OBJECT_NAME":"ONEWEB-0190","OBJECT_ID":"2021-045AF","EPOCH":"2025-12-06T02:59:52.761408","MEAN_MOTION":13.15547594,"ECCENTRICITY":0.00025396,"INCLINATION":87.898,"RA_OF_ASC_NODE":297.7287,"ARG_OF_PERICENTER":73.6611,"MEAN_ANOMALY":286.4799,"EPHEMERIS_TYPE":0,"CLASSIFICATION_TYPE":"U","NORAD_CAT_ID":48796,"ELEMENT_SET_NO":999,"REV_AT_EPOCH":21898,"BSTAR":-0.00014933518,"MEAN_MOTION_DOT":-4.3e-7,"MEAN_MOTION_DDOT":0},{"OBJECT_NAME":"ONEWEB-0236","OBJECT_ID":"2021-045AG","EPOCH":"2025-12-06T07:04:00.778944","MEAN_MOTION":13.15549103,"ECCENTRICITY":0.0001681,"INCLINATION":87.898,"RA_OF_ASC_NODE":297.707,"ARG_OF_PERICENTER":81.6724,"MEAN_ANOMALY":278.4596,"EPHEMERIS_TYPE":0,"CLASSIFICATION_TYPE":"U","NORAD_CAT_ID":48797,"ELEMENT_SET_NO":999,"REV_AT_EPOCH":21889,"BSTAR":-0.00017621561,"MEAN_MOTION_DOT":-5.4e-7,"MEAN_MOTION_DDOT":0}]
